ID,NUMERO,NOMBRE,DIRECCION,BARRIO,COMUNA,EMPLAZAMIENTO,ANCLAJES,QUEDA ABIERTA,Latitud,Longitud
202,1,FACULTAD DE DERECHO,"2120 Figueroa Alcorta, Pres. Av.",RECOLETA,COMUNA 2,VEREDA,30.0,1,-34.5842,-58.3905
2,2,RETIRO I,"Ramos Mejia, Jose Maria, Dr. Av. & Del Libertador Av.",RETIRO,COMUNA 1,PLAZA ABIERTA,36.0,1,-34.5927,-58.3751
3,3,ADUANA,Moreno & Azopardo,MONSERRAT,COMUNA 1,VEREDA,20.0,1,-34.6112,-58.3696
4,4,PLAZA ROMA,Lavalle & Bouchard,SAN NICOLAS,COMUNA 1,CALZADA,20.0,1,-34.6018,-58.3691
5,5,PLAZA ITALIA,2601 Sarmiento Av.,PALERMO,COMUNA 14,VEREDA,42.0,1,-34.5808,-58.4204
6,6,PARQUE LEZAMA,"295 Garcia, Martin Av.",SAN TELMO,COMUNA 1,PLAZA ABIERTA,20.0,1,-34.6282,-58.3694
7,7,OBELISCO,"215 Pellegrini, Carlos",SAN NICOLAS,COMUNA 1,PLAZOLETA,16.0,1,-34.6058,-58.3807
8,8,CONGRESO,"Cevallos, Virrey & Yrigoyen, Hipolito Av.",SAN NICOLAS,COMUNA 1,PLAZA ABIERTA,24.0,1,-34.6101,-58.3891
9,9,PARQUE LAS HERAS,"2300 Diaz, Cnel. Av. & French",PALERMO,COMUNA 14,PLAZA ABIERTA,24.0,1,-34.5855,-58.4077
228,10,MADERO UCA,"1600 Moreau De Justo, Alicia Av.",PUERTO MADERO,COMUNA 1,VEREDA,20.0,1,-34.6170,-58.3658
11,11,TRIBUNALES,600 Talcahuano & Tucuman,SAN NICOLAS,COMUNA 1,PLAZA ABIERTA,20.0,0,-34.6017,-58.3854
12,12,PLAZA VICENTE LOPEZ,Parana & Juncal,RECOLETA,COMUNA 2,PLAZA ABIERTA,16.0,1,-34.5928,-58.3888
13,13,ONCE,Pueyrredon Av. & Rivadavia Av.,BALVANERA,COMUNA 3,PLAZA ABIERTA,30.0,1,-34.6101,-58.4066
14,14,PACIFICO,"550 Bullrich, Int. Av. & Santa Fe Av.",PALERMO,COMUNA 14,VEREDA,30.0,1,-34.5782,-58.4266
15,15,JUANA MANSO II,"Manso Juana & De La Barra, Emma",PUERTO MADERO,COMUNA 1,VEREDA,15.0,0,-34.6004,-58.3639
441,16,LEGISLATURA,"169 Peru & Roca, Julio A., Presidente Diagonal Sur Av.",MONSERRAT,COMUNA 1,VEREDA,20.0,1,-34.6099,-58.3750
17,17,PLAZA ALMAGRO,"441 Bulnes & Peron, Juan Domingo, Tte. General",ALMAGRO,COMUNA 5,CALZADA,20.0,1,-34.6064,-58.4185
59,18,INDEPENDENCIA,"Independencia Av. & Irigoyen, Bernardo De",MONSERRAT,COMUNA 1,PLAZOLETA,20.0,1,-34.6176,-58.3803
19,19,PLAZA SAN MARTIN,750 Santa Fe Av. & Maipu,RETIRO,COMUNA 1,PLAZOLETA,21.0,0,-34.5956,-58.3773
20,20,DISTRITO AUDIOVISUAL,Zapiola & Dorrego,COLEGIALES,COMUNA 13,CALZADA,20.0,0,-34.5801,-58.4416
21,21,PARQUE PATRICIOS,Iguazu & Uspallata,PARQUE PATRICIOS,COMUNA 4,PLAZOLETA,24.0,1,-34.6403,-58.4065
22,22,ARENALES,Cerrito & Arenales,RETIRO,COMUNA 1,PLAZOLETA,20.0,1,-34.5943,-58.3828
23,23,SUIPACHA,691 Suipacha & Viamonte,SAN NICOLAS,COMUNA 1,VEREDA,12.0,1,-34.6001,-58.3797
24,24,ALSINA,"Alsina, Adolfo&Irigoyen, Bernardo De",MONSERRAT,COMUNA 1,PLAZOLETA,18.0,1,-34.6108,-58.3806
25,25,PLAZA GUEMES,"Salguero, Jeronimo & Mansilla, Lucio Norberto, General",PALERMO,COMUNA 14,PLAZA ABIERTA,24.0,1,-34.5898,-58.4166
26,26,JUANA MANSO I,"Manso Juana & De La Barra, Emma",PUERTO MADERO,COMUNA 1,VEREDA,30.0,1,-34.6009,-58.3638
27,27,MONTEVIDEO,Cordoba Av. & Montevideo,SAN NICOLAS,COMUNA 1,VEREDA,16.0,1,-34.5994,-58.3897
28,28,PLAZA BOEDO,"3310 Calvo, Carlos & Sanchez De Loria",BOEDO,COMUNA 5,CALZADA,18.0,3,-34.6231,-58.4124
453,28,PLAZA DE LA BANDERA,Av. Gaona 5181,VELEZ SARSFIELD,COMUNA 10,VEREDA,16.0,1,-34.6295,-58.4944
29,29,PARQUE CENTENARIO,74 Patricias Argentinas Av. & Estivao,CABALLITO,COMUNA 6,PLAZA ABIERTA,30.0,1,-34.6080,-58.4333
30,30,PEÑA,Peña & Azcuenaga,RECOLETA,COMUNA 2,CALZADA,20.0,1,-34.5906,-58.3974
31,31,PADILLA,"288 Padilla & Alvarez, Julian",VILLA CRESPO,COMUNA 15,PLAZOLETA,20.0,1,-34.6031,-58.4397
32,32,CATEDRAL,67 San Martin,SAN NICOLAS,COMUNA 1,VEREDA,16.0,1,-34.6072,-58.3735
33,33,FACULTAD DE MEDICINA,"987 Uriburu Jose E., Pres. & Alvear, Marcelo T. De",RECOLETA,COMUNA 2,VEREDA,20.0,1,-34.5972,-58.3988
48,34,COLONIA EXPRESS,150 Elvira Rawson Dellepiane,PUERTO MADERO,COMUNA 4,VEREDA,16.0,1,-34.6243,-58.3623
35,35,INGENIERO BUTTY,"291 Butty, E., Ing. & Alem, Leandro N. Av.",RETIRO,COMUNA 1,PLAZOLETA,20.0,1,-34.5962,-58.3718
36,36,MAIPU,300 Maipu & Sarmiento,SAN NICOLAS,COMUNA 1,VEREDA,16.0,1,-34.6046,-58.3766
98,37,CLAUDIA PIA BRAUDACCO,Esmeralda & Rivadavia Av.,SAN NICOLAS,COMUNA 1,VEREDA,16.0,1,-34.6082,-58.3778
38,38,PLAZA LIBERTAD,"990 Cerrito & Alvear, Marcelo T. De",RETIRO,COMUNA 1,VEREDA,20.0,1,-34.5971,-58.3827
39,39,CONGRESO II,Rivadavia Av. & Parana,MONSERRAT,COMUNA 1,PLAZA ABIERTA,20.0,3,-34.6089,-58.3877
455,39,PLAZA DON BOSCO,Elpidio Gonzales 5181,VILLA LURO,COMUNA 10,CALZADA,16.0,1,-34.6265,-58.5081
40,40,SARMIENTO,481 Sarmiento & San Martin,SAN NICOLAS,COMUNA 1,VEREDA,16.0,0,-34.6044,-58.3735
41,41,URQUIZA Y RONDEAU,"Urquiza, Gral. & Rondeau",PARQUE PATRICIOS,COMUNA 4,CALZADA,20.0,0,-34.6363,-58.4077
42,42,DIAGONAL NORTE,929 Av. Pres. Roque Sáenz Peña,SAN NICOLAS,COMUNA 1,VEREDA,18.0,0,-34.6046,-58.3798
423,43,PLAZA ALBERTDI,Crisólito Larralde 4544,SAAVEDRA,COMUNA 12,CALZADA,12.0,1,-34.5593,-58.4878
328,43,PLAZA HOUSSAY,Junin & Paraguay,RECOLETA,COMUNA 2,PLAZA ABIERTA,8.0,3,-34.5986,-58.3973
44,44,ECOPARQUE,3260 Del Libertador Av. & Sarmiento Av.,PALERMO,COMUNA 14,VEREDA,20.0,1,-34.5758,-58.4143
45,45,URUGUAY,561 Uruguay & Av. Tucuman,SAN NICOLAS,COMUNA 1,VEREDA,20.0,1,-34.6022,-58.3866
46,46,CHILE,718 Peru,SAN TELMO,COMUNA 1,VEREDA,18.0,1,-34.6164,-58.3744
47,47,COLEGIO NACIONAL DE BUENOS AIRES,306 Bolivar & Moreno,MONSERRAT,COMUNA 1,VEREDA,16.0,0,-34.6116,-58.3733
442,48,PERON,"338 Peron, Juan Domingo, Tte. General & 25 De Mayo",SAN NICOLAS,COMUNA 1,VEREDA,16.0,0,-34.6038,-58.3711
49,49,33 ORIENTALES,Constituciòn & Treinta Y Tres Orientales,BOEDO,COMUNA 5,CALZADA,16.0,1,-34.6288,-58.4223
50,50,HOSPITAL RIVADAVIA,2516 Pereyra Lucena & Las Heras General Av.,PALERMO,COMUNA 14,CALZADA,20.0,1,-34.5836,-58.4012
51,51,TUCUMAN,Tucuman & 9 De Julio Av.,SAN NICOLAS,COMUNA 1,PLAZOLETA,12.0,1,-34.6014,-58.3819
456,52,PLAZA JUAN S. SALABERRY,Av. Juan Bautista Alberdi 6392,MATADERO,COMUNA 9,VEREDA,16.0,0,-34.6555,-58.5070
52,52,SANCHEZ DE BUSTAMANTE,212 Sanchez De Bustamante y Peron,ALMAGRO,COMUNA 5,CALZADA,20.0,3,-34.6069,-58.4148
53,53,RICARDO ROJAS,"1068 San Martin & Rojas, Ricardo, Dr.",RETIRO,COMUNA 1,VEREDA,20.0,0,-34.5954,-58.3744
54,54,ACUÑA DE FIGUEROA,"Lavalle & Acuña De Figueroa, Francisco",ALMAGRO,COMUNA 5,CALZADA,20.0,1,-34.5982,-58.4219
55,55,BOUCHARD,101 Viamonte & Bouchard,SAN NICOLAS,COMUNA 1,CALZADA,20.0,0,-34.5993,-58.3696
56,56,PLAZA PALERMO VIEJO,1829 Armenia & Costa Rica,PALERMO,COMUNA 14,CALZADA,16.0,1,-34.5887,-58.4262
57,57,BELGRANO,482 Balcarce & Republica Bolivariana De Venezuela,MONSERRAT,COMUNA 1,VEREDA,16.0,0,-34.6134,-58.3707
58,58,MINISTRO CARRANZA,Santa Fe Av. & Dorrego,PALERMO,COMUNA 14,VEREDA,20.0,1,-34.5749,-58.4353
216,59,CORONEL DIAZ,"3328 Guemes & Diaz, Cnel. Av.",PALERMO,COMUNA 14,CALZADA,20.0,1,-34.5902,-58.4116
60,60,25 DE MAYO,527 25 De Mayo & Lavalle,SAN NICOLAS,COMUNA 1,VEREDA,20.0,1,-34.6015,-58.3712
444,61,MINISTERIO DE ECONOMIA,"Balcarce & Yrigoyen, Hipolito Av.",MONSERRAT,COMUNA 1,VEREDA,24.0,1,-34.6088,-58.3707
62,62,CORDOBA,820 Maipu & Cordoba Av.,RETIRO,COMUNA 1,VEREDA,20.0,0,-34.5985,-58.3769
63,63,RECONQUISTA,776 Reconquista & Cordoba Av.,SAN NICOLAS,COMUNA 1,VEREDA,24.0,1,-34.5985,-58.3728
64,64,RIOBAMBA,1264 Riobamba & Juncal,RECOLETA,COMUNA 2,CALZADA,20.0,1,-34.5940,-58.3945
65,65,JULIAN ALVAREZ,"3822 Guemes & Alvarez, Julian",PALERMO,COMUNA 14,CALZADA,20.0,1,-34.5873,-58.4160
66,66,BILLINGHURST,"3508 Carcova, De La & Soler",RECOLETA,COMUNA 2,CALZADA,20.0,1,-34.5947,-58.4139
176,67,PARQUE SARMIENTO I,Av. Dr. Ricardo Balbin 4402,SAAVEDRA,COMUNA 12,VEREDA,16.0,1,-34.5553,-58.4948
218,67,SENILLOSA,1905 Senillosa & Zañartu,PARQUE CHACABUCO,COMUNA 7,CALZADA,16.0,3,-34.6385,-58.4255
462,68,MINISTERIO DE DESARROLLO HUMANO,Avenida Piedrabuena 3109,VILLA LUGANO,COMUNA 8,VEREDA,16.0,0,-34.6701,-58.4956
68,68,RIVAROLA,"175 Rivarola, Rodolfo, Dr. & Peron, Juan Domingo, Tte. General",SAN NICOLAS,COMUNA 1,CALZADA,20.0,3,-34.6066,-58.3854
69,69,ECUADOR,"1226 Ecuador & Mansilla, Lucio Norberto, General",RECOLETA,COMUNA 2,PLAZOLETA,16.0,1,-34.5958,-58.4046
70,70,ARAOZ,1413 Araoz & Gorriti,PALERMO,COMUNA 14,CALZADA,20.0,1,-34.5927,-58.4258
71,71,CERRITO,"Saenz Peña, Roque, Pres. Diagonal Norte Av. & Cerrito",SAN NICOLAS,COMUNA 1,VEREDA,30.0,1,-34.6026,-58.3838
72,72,VENEZUELA,490 Peru & Republica Bolivariana De Venezuela,MONSERRAT,COMUNA 1,VEREDA,18.0,0,-34.6137,-58.3746
73,73,RUY DIAZ DE GUZMAN,"Ruy Diaz De Guzman &Garcia, Martin Av.",BOCA,COMUNA 4,PLAZOLETA,16.0,1,-34.6305,-58.3716
74,74,INSTITUTO LELOIR,"Patricias Argentinas Av. & Ibarbourou, Juana De",CABALLITO,COMUNA 6,VEREDA,30.0,1,-34.6046,-58.4348
75,75,PLAZA PRIMERO DE MAYO,238 Pichincha,BALVANERA,COMUNA 3,CALZADA,20.0,1,-34.6123,-58.3989
76,76,AYACUCHO,"Ayacucho &Peron, Juan Domingo, Tte. General",BALVANERA,COMUNA 3,CALZADA,20.0,1,-34.6070,-58.3950
77,77,SARANDI,"176 Sarandi & Alsina, Adolfo",BALVANERA,COMUNA 3,CALZADA,20.0,0,-34.6114,-58.3947
78,78,SUIPACHA Y ARROYO,1420 Suipacha & Arroyo,RETIRO,COMUNA 1,VEREDA,20.0,0,-34.5909,-58.3800
79,79,AZUCENA VILLAFLOR,"Villaflor, Azucena & Dealessi, Pierina",PUERTO MADERO,COMUNA 1,PLAZOLETA,30.0,1,-34.6120,-58.3639
80,80,DOBLAS,608 Doblas & Valle,CABALLITO,COMUNA 6,CALZADA,16.0,0,-34.6242,-58.4303
443,81,BALCARCE,683 Balcarce & Chile Av.,MONSERRAT,COMUNA 1,VEREDA,18.0,0,-34.6157,-58.3706
82,82,HOSPITAL ITALIANO,394 Rawson & Potosi,ALMAGRO,COMUNA 5,CALZADA,20.0,1,-34.6074,-58.4262
83,83,PARANA,1590 Lavalle & Montevideo,SAN NICOLAS,COMUNA 1,CALZADA,20.0,1,-34.6031,-58.3893
84,84,LAVALLE,595 Ayacucho &Tucuman,BALVANERA,COMUNA 3,CALZADA,20.0,0,-34.6023,-58.3955
85,85,AGUERO,"Aguero & Mansilla, Lucio Norberto, General",RECOLETA,COMUNA 2,CALZADA,20.0,1,-34.5945,-58.4089
86,86,SAAVEDRA,"1019 Saavedra & Calvo, Carlos",SAN CRISTOBAL,COMUNA 3,CALZADA,20.0,1,-34.6213,-58.4018
87,87,GUAYAQUIL,Guayaquil & Doblas,CABALLITO,COMUNA 6,CALZADA,16.0,1,-34.6198,-58.4313
88,88,MISIONES,"209 Misiones & Alsina, Adolfo",BALVANERA,COMUNA 3,CALZADA,20.0,0,-34.6126,-58.4044
89,89,CABELLO,3082 Cabello,PALERMO,COMUNA 14,CALZADA,20.0,1,-34.5825,-58.4054
90,90,GUTIERREZ,"2685 Gutierrez, Juan Maria & Aguero",RECOLETA,COMUNA 2,CALZADA,19.0,0,-34.5866,-58.3999
91,91,PASCO,708 Pasco & Chile,BALVANERA,COMUNA 3,CALZADA,20.0,1,-34.6174,-58.3976
92,92,SALCEDO,2908 Salcedo & Dean Funes,PARQUE PATRICIOS,COMUNA 4,CALZADA,20.0,1,-34.6318,-58.4049
93,93,CARLOS CALVO,"1010 Sarandi & Calvo, Carlos",SAN CRISTOBAL,COMUNA 3,CALZADA,20.0,1,-34.6207,-58.3944
94,94,GUZMAN,129 Av. Guzman & Leiva,CHACARITA,COMUNA 15,PLAZA ABIERTA,30.0,1,-34.5917,-58.4497
95,95,ESMERALDA,516 Esmeralda,SAN NICOLAS,COMUNA 1,VEREDA,16.0,1,-34.6021,-58.3782
96,96,CARLOS GARDEL,3302 Guardia Vieja & Aguero,BALVANERA,COMUNA 3,CALZADA,20.0,1,-34.6029,-58.4115
220,97,AVELINO DIAZ,"Diaz, Avelino & Doblas",PARQUE CHACABUCO,COMUNA 7,CALZADA,16.0,1,-34.6353,-58.4275
61,98,Benito Juarez,2221 Benito Juarez (y Alvarez Jonte),MONTE CASTRO,COMUNA 10,CALZADA,12.0,1,-34.6190,-58.5047
500,98,BELGRANO Y ROCA,"Roca, Julio A., Presidente Diagonal Sur Av. y Belgrano Av.",MONSERRAT,COMUNA 1,VEREDA,,3,-34.6129,-58.3776
99,99,MALABIA,780 Malabia & Loyola,VILLA CRESPO,COMUNA 15,CALZADA,20.0,1,-34.5963,-58.4357
329,100,PLAZA GURRUCHAGA,1078 Gurruchaga,VILLA CRESPO,COMUNA 15,CALZADA,20.0,1,-34.5931,-58.4351
101,101,FITZ ROY,1092 Fitz Roy & Loyola,CHACARITA,COMUNA 15,CALZADA,20.0,1,-34.5891,-58.4423
102,102,ROSETI,50 Roseti & Dorrego Av.,CHACARITA,COMUNA 15,CALZADA,12.0,1,-34.5864,-58.4460
242,103,MALBA,"3051 San Martin De Tours & Figueroa Alcorta, Pres. Av.",PALERMO,COMUNA 14,CALZADA,20.0,1,-34.5771,-58.4030
104,104,FEDERICO LACROZE,1100 Guzman Av. & Corrientes Av.,CHACARITA,COMUNA 15,PLAZOLETA,30.0,1,-34.5876,-58.4551
105,105,15 DE NOVIEMBRE,2687 15 De Noviembre De 1889 & Catamarca,PARQUE PATRICIOS,COMUNA 4,CALZADA,16.0,3,-34.6340,-58.4010
68,105,PARQUE SAAVEDRA,García del Río 3590,SAAVEDRA,COMUNA 12,CALZADA,16.0,1,-34.5521,-58.4805
461,106,MOSCONI Y CONSTITUYENTES,Av. Constituyente 4710,PARQUE CHAS,COMUNA 15,VEREDA,16.0,1,-34.5809,-58.4936
106,106,RINCON,2091 Republica Bolivariana De Venezuela,BALVANERA,COMUNA 3,CALZADA,20.0,3,-34.6152,-58.3959
107,107,HOSPITAL GARRAHAN,Brasil & Pichincha,PARQUE PATRICIOS,COMUNA 4,VEREDA,16.0,1,-34.6303,-58.3963
203,108,USINA DEL ARTE,"Caffarena, Agustin R. & Don Pedro De Mendoza Av.",BOCA,COMUNA 4,VEREDA,24.0,1,-34.6289,-58.3562
77,109,ESTACION PUEYRREDON,Bolivia 5071,VILLA PUEYRREDON,COMUNA 12,VEREDA,16.0,1,-34.5811,-58.5015
225,109,LERMA,"175 Lerma & Alvarez, Julian",VILLA CRESPO,COMUNA 15,CALZADA,20.0,3,-34.5968,-58.4295
110,110,GUARDIA VIEJA,3500 Guardia Vieja & Billinghurst,ALMAGRO,COMUNA 5,CALZADA,20.0,3,-34.6022,-58.4141
457,110,PLAZA CD DE BANFF,Roma 786,VERSALLES,COMUNA 10,CALZADA,8.0,1,-34.6281,-58.5217
111,111,MACACHA GUEMES,"350 Guemes, Macacha & Dealessi, Pierina",PUERTO MADERO,COMUNA 1,PLAZOLETA,30.0,1,-34.6048,-58.3639
112,112,9 DE JULIO,"320 Irigoyen, Bernardo De & Moreno",MONSERRAT,COMUNA 1,PLAZOLETA,20.0,1,-34.6121,-58.3805
215,113,GUATEMALA,"4773 Guatemala & Borges, Jorge Luis",PALERMO,COMUNA 14,CALZADA,20.0,1,-34.5857,-58.4251
114,114,DELLA PAOLERA,"297 Della Paolera, Carlos M. & Alem, Leandro N. Av.",RETIRO,COMUNA 1,PLAZOLETA,32.0,1,-34.5949,-58.3724
115,115,QUINTANA,"600 Quintana, Manuel, Pres. Av. & Haedo, Eduardo V., Pres.",RECOLETA,COMUNA 2,VEREDA,16.0,0,-34.5878,-58.3908
116,116,HOSPITAL ALEMAN,Beruti & Ecuador,RECOLETA,COMUNA 2,CALZADA,12.0,1,-34.5921,-58.4028
117,117,HUMBERTO 1°,"1016 Peru & Calvo, Carlos",SAN TELMO,COMUNA 1,CALZADA,16.0,1,-34.6199,-58.3742
118,118,MEXICO,Saavedra & Mexico,BALVANERA,COMUNA 3,CALZADA,20.0,1,-34.6168,-58.4027
119,119,EMILIO MITRE,"Pacheco De Melo, Jose Andres & Larrea",RECOLETA,COMUNA 2,PLAZA CERRADA,20.0,0,-34.5885,-58.3978
120,120,HOSPITAL RAMOS MEJIA,3084 Agrelo & Urquiza,BALVANERA,COMUNA 3,CALZADA,20.0,1,-34.6175,-58.4092
121,121,YATAY,925 Yatay& Humahuaca,ALMAGRO,COMUNA 5,CALZADA,20.0,1,-34.6008,-58.4283
122,122,COSTA RICA,"4090 Costa Rica & Acuña De Figueroa, Francisco",PALERMO,COMUNA 14,CALZADA,20.0,1,-34.5916,-58.4204
505,123,ARMENIA,2315 Armenia & Charcas,PALERMO,COMUNA 14,CALZADA,20.0,3,-34.5853,-58.4211
207,123,BASUALDO Y RODO,1700 Guardia Nacional,MATADEROS,COMUNA 9,CALZADA,16.0,1,-34.6523,-58.4874
124,124,UGARTECHE,3050 Ugarteche & Cabello,PALERMO,COMUNA 14,CALZADA,20.0,1,-34.5807,-58.4125
205,125,F. J. SANTAMARIA DE ORO,Fray Justo Santamaria De Oro &Guatemala,PALERMO,COMUNA 14,VEREDA,16.0,1,-34.5834,-58.4281
126,126,MINISTERIO DE JUSTICIA Y SEGURIDAD,"Regimiento De Patricios Av. & Araoz De Lamadrid, Gregorio, Gral.",BOCA,COMUNA 4,VEREDA/dentro del ministerio,16.0,1,-34.6401,-58.3693
417,127,PLAZA LEONARDO N. ALEM,Cochrane 2407,VILLA PUEYRREDON,COMUNA 12,VEREDA,20.0,1,-34.5763,-58.5025
127,127,SANTOS DUMONT Y OTERO,"4392 Dumont, Santos & Otero",CHACARITA,COMUNA 15,CALZADA,16.0,3,-34.5923,-58.4531
128,128,PARQUE DEL BAJO,"Madero, Eduardo Av. & Peron, Juan Domingo, Tte. General",SAN NICOLAS,COMUNA 1,PLAZA ABIERTA,20.0,1,-34.6052,-58.3680
212,129,VELASCO,"285 Ramirez De Velasco, Juan & Alvarez, Julian",VILLA CRESPO,COMUNA 15,CALZADA,16.0,1,-34.6002,-58.4349
130,130,RETIRO II,"Ramos Mejia, Jose Maria, Dr. Av. & Del Libertador Av.",RETIRO,COMUNA 1,PLAZA ABIERTA,40.0,1,-34.5927,-58.3750
131,131,HOSPITAL DE CLINICAS,"Uriburu Jose E., Pres. & Paraguay",RECOLETA,COMUNA 2,VEREDA,16.0,1,-34.5983,-58.3990
132,132,CORRIENTES,Reconquista & Corrientes Av.,SAN NICOLAS,COMUNA 1,PLAZOLETA,12.0,1,-34.6031,-58.3725
460,133,BEIRO Y SEGUROLA,Segurola 3194,VILLA DEVOTO,COMUNA 11,CALZADA,16.0,1,-34.6075,-58.5119
224,133,NICARAGUA,Nicaragua & Bonpland,PALERMO,COMUNA 14,CALZADA,20.0,3,-34.5809,-58.4345
506,134,DON BOSCO,3490 Don Bosco & Liniers Virrey,ALMAGRO,COMUNA 5,CALZADA,20.0,3,-34.6119,-58.4153
134,134,SOLDADO DE LA FRONTERA,4999 Soldado de la Frontera,VILLA LUGANO,COMUNA 8,PLAZOLETA,12.0,1,-34.6832,-58.4660
135,135,MARCELO T. DE ALVEAR,902 Esmeralda & Paraguay,SAN NICOLAS,COMUNA 1,VEREDA,20.0,1,-34.5975,-58.3784
213,136,ACEVEDO,220 Acevedo,VILLA CRESPO,COMUNA 15,CALZADA,20.0,1,-34.5998,-58.4428
137,137,AZOPARDO Y CHILE,700 Azopardo & Chile Av.,MONSERRAT,COMUNA 1,CALZADA,24.0,1,-34.6157,-58.3676
138,138,HOSPITAL BRITANICO,153 Perdriel,BARRACAS,COMUNA 4,CALZADA,12.0,1,-34.6354,-58.3876
226,139,VIRREY LINIERS,3408 Salcedo & Liniers Virrey,BOEDO,COMUNA 5,CALZADA,20.0,0,-34.6334,-58.4132
219,140,LAS CASAS,Metán 3656 EX 3587 Las Casas,BOEDO,COMUNA 5,CALZADA,16.0,1,-34.6359,-58.4157
141,141,SOLIS Y ALSINA,"225 Solis & Alsina, Adolfo",MONSERRAT,COMUNA 1,CALZADA,20.0,0,-34.6118,-58.3904
214,142,ARMENIA Y GORRITI,1525 Armenia & Gorriti,PALERMO,COMUNA 14,CALZADA,16.0,0,-34.5907,-58.4289
143,143,BILLINGHURST Y VALENTIN GOMEZ,"455 Billinghurst & Gomez, Valentin",ALMAGRO,COMUNA 5,CALZADA,20.0,0,-34.6046,-58.4158
144,144,PUEYRREDON,684 Boulogne Sur Mer & Tucuman,BALVANERA,COMUNA 3,CALZADA,20.0,1,-34.6021,-58.4061
208,145,RAVIGNANI,"1900 Ravignani, Emilio, Dr. & Costa Rica",PALERMO,COMUNA 14,CALZADA,20.0,1,-34.5803,-58.4378
146,146,HOSPITAL FRANCES,"3024 Calvo, Carlos & La Rioja",SAN CRISTOBAL,COMUNA 3,CALZADA,20.0,1,-34.6222,-58.4077
175,147,CONSTITUCION,"Garay, Juan De Av. 1150",CONSTITUCION,COMUNA 1,PLAZOLETA,48.0,1,-34.6261,-58.3793
330,148,PATERNAL,Punta Arenas 1798,PATERNAL,COMUNA 15,CALZADA,16.0,1,-34.6007,-58.4700
149,149,LIMA,Mexico & Lima,MONSERRAT,COMUNA 1,PLAZOLETA,16.0,1,-34.6153,-58.3816
150,150,RODRIGO BUENO,2200 España Av entre Rodrigo Bueno I & Rodrigo Bueno II,PUERTO MADERO,COMUNA 1,VEREDA,30.0,1,-34.6192,-58.3556
512,150,VERA PEÑALOZA,"Vera Peñaloza, Rosario & Cossettini, Olga",PUERTO MADERO,COMUNA 1,VEREDA,30.0,3,-34.6175,-58.3627
151,151,AIME PAINE,"Villaflor, Azucena & Paine, Aime",PUERTO MADERO,COMUNA 1,PLAZOLETA,24.0,1,-34.6120,-58.3615
152,152,JULIETA LANTERI,"Vera Peñaloza, Rosario & Lanteri Julieta",PUERTO MADERO,COMUNA 1,PLAZA ABIERTA,28.0,1,-34.6181,-58.3600
153,153,JUAN MANUEL BLANES,"383 Blanes, Juan Manuel",BOCA,COMUNA 4,CALZADA,16.0,1,-34.6307,-58.3621
154,154,GALLO,789 Gallo & Tucuman,ALMAGRO,COMUNA 5,CALZADA,20.0,0,-34.6005,-58.4123
155,155,PARQUE JOSE EVARISTO URIBURU,Avenida Almafuerte 6,NUEVA POMPEYA,COMUNA 4,PLAZA ABIERTA,20.0,1,-34.6381,-58.4112
156,156,PLAZA ALEMANIA,2939 Cavia & Del Libertador Av.,PALERMO,COMUNA 14,CALZADA,20.0,1,-34.5778,-58.4073
221,157,SENILLOSA Y ZUVIRIA,989 Senillosa & Zuviria,PARQUE CHACABUCO,COMUNA 7,CALZADA,20.0,0,-34.6283,-58.4280
158,158,VILLARROEL,1321 Villarroel & Humboldt,CHACARITA,COMUNA 15,CALZADA,20.0,1,-34.5925,-58.4452
206,159,FITZ ROY Y GORRITI,Fitz Roy & Gorriti,PALERMO,COMUNA 14,CALZADA,16.0,1,-34.5849,-58.4372
222,160,GODOY CRUZ Y LIBERTADOR,3279 Godoy Cruz & Del Libertador Av.,PALERMO,COMUNA 14,CALZADA,20.0,1,-34.5728,-58.4207
161,161,HUMAHUACA,"3912 Humahuaca & Salguero, Jeronimo",ALMAGRO,COMUNA 5,CALZADA,20.0,1,-34.6021,-58.4195
162,162,LARREA Y BARTOLOME MITRE,"80 Larrea & Mitre, Bartolome",BALVANERA,COMUNA 3,VEREDA,20.0,1,-34.6090,-58.4019
163,163,ONCE II,"Mitre, Bartolome & Puerredon Av.",BALVANERA,COMUNA 3,PLAZA ABIERTA,30.0,1,-34.6088,-58.4061
164,164,FACULTAD DE INGENIERIA,Av. Paseo Colón 823,SAN TELMO,COMUNA 1,VEREDA,20.0,1,-34.6173,-58.3669
165,165,PLAZA MONSEÑOR MIGUEL DE ANDREA,"Anchorena, Tomas Manuel De, Dr. & Cabrera, Jose A.",RECOLETA,COMUNA 2,VEREDA,12.0,1,-34.5970,-58.4076
166,166,CEMENTERIO DE LA RECOLETA,"2000 Lopez, Vicente & Junin",RECOLETA,COMUNA 2,PLAZOLETA,20.0,1,-34.5886,-58.3942
204,167,HIPOLITO YRIGOYEN,"4300 Yrigoyen, Hipolito Av.",ALMAGRO,COMUNA 5,VEREDA,24.0,1,-34.6150,-58.4273
168,168,ESTADOS UNIDOS,Estados Unidos & Lima,CONSTITUCION,COMUNA 1,PLAZOLETA,16.0,1,-34.6185,-58.3815
169,169,FACULTAD DE PSICOLOGIA,"Yrigoyen, Hipolito & 24 De Noviembre",BALVANERA,COMUNA 3,PLAZA CERRADA,12.0,1,-34.6118,-58.4117
170,170,SAN LUIS Y ECUADOR,2862 San Luis & Ecuador,BALVANERA,COMUNA 3,CALZADA,20.0,0,-34.5997,-58.4060
171,171,PASTEUR,519 Pasteur & Lavalle,BALVANERA,COMUNA 3,CALZADA,20.0,1,-34.6030,-58.3996
172,172,BRASIL,Brasil & Defensa,SAN TELMO,COMUNA 1,PLAZA ABIERTA,16.0,1,-34.6254,-58.3711
173,173,PLAZA CECILIA GRIERSON,632 San Juan Av. & Chacabuco,SAN TELMO,COMUNA 1,PLAZA CERRADA,16.0,0,-34.6221,-58.3750
174,174,MINISTERIO DE EDUCACION,"Alvear, Marcelo T. De & Rodriguez Peña",RECOLETA,COMUNA 2,PLAZOLETA,20.0,1,-34.5972,-58.3918
201,175,ESMERALDA Y CORRIENTES,Esmeralda & Corrientes Av.,SAN NICOLAS,COMUNA 1,VEREDA,7.0,0,-34.6035,-58.3781
176,176,PINZON Y MARTIN RODRIGUEZ,469 Pinzon,BOCA,COMUNA 4,CALZADA,9.0,3,-34.6341,-58.3609
454,178,PLAZA DERECHOS DEL HOMBRE,Cortina 551,VILLA LURO,COMUNA 10,VEREDA,12.0,1,-34.6340,-58.5069
177,177,PLANETARIO,"Av. Roldan, Belisario y Av. Casares",PALERMO,COMUNA 14,VEREDA,7.0,1,-34.5682,-58.4123
223,178,JOSE MARMOL,"803 Marmol, Jose & Estados Unidos",BOEDO,COMUNA 5,CALZADA,16.0,1,-34.6234,-58.4249
179,179,CASA SAN,Olavarria y Garibaldi,BOCA,COMUNA 4,CALZADA,16.0,1,-34.6385,-58.3643
501,179,LA BOCA,1819 Don Pedro De Mendoza Av. & Palos EX ID 179,BOCA,COMUNA 4,CALZADA,16.0,3,-34.6390,-58.3606
180,180,CASTRO Y MEXICO,680 Castro & Mexico,ALMAGRO,COMUNA 5,CALZADA,20.0,0,-34.6198,-58.4205
181,181,BILLINGHURST Y MANSILLA,"1533 Billinghurst & Mansilla, Lucio Norberto, General",RECOLETA,COMUNA 2,CALZADA,20.0,1,-34.5926,-58.4120
182,182,RAVIGNANI Y GUATEMALA,"2185 Ravignani, Emilio, Dr. & Guatemala",PALERMO,COMUNA 14,CALZADA,20.0,1,-34.5781,-58.4351
183,183,VIRREY CEVALLOS,1652 Mexico,MONSERRAT,COMUNA 1,CALZADA,20.0,1,-34.6156,-58.3897
184,184,PEDRO ECHAGUE,"1878 Echague, Pedro & Combate De Los Pozos",PARQUE PATRICIOS,COMUNA 4,CALZADA,20.0,1,-34.6307,-58.3912
185,185,AV. PAVON Y 33 ORIENTALES,1400 Treinta Y Tres Orientales & Pavon Av.,BOEDO,COMUNA 5,CALZADA,20.0,0,-34.6308,-58.4218
186,186,MANZANA 66,2875 Moreno & Catamarca,BALVANERA,COMUNA 3,PLAZA ABIERTA,20.0,1,-34.6135,-58.4061
432,187,JOSE MARIA MORENO,141 Jose Maria Moreno,CABALLITO,COMUNA 6,VEREDA,20.0,1,-34.6202,-58.4356
227,188,ARANGUREN,"1 Aranguren, Juan F., Dr. & Portugal",CABALLITO,COMUNA 6,CALZADA,20.0,1,-34.6104,-58.4328
189,189,POSADAS,1350 Posadas & Montevideo,RETIRO,COMUNA 1,CALZADA,20.0,1,-34.5885,-58.3855
190,190,JUNCAL,"Juncal & Salguero, Jeronimo",PALERMO,COMUNA 14,CALZADA,20.0,1,-34.5852,-58.4110
191,191,RIVADAVIA Y 9 DE JULIO,Pellegrini & Rivadavia Av.,SAN NICOLAS,COMUNA 1,PLAZOLETA,16.0,1,-34.6084,-58.3808
192,192,TALCAHUANO,990 Talcahuano & Marcelo T. Alvear,RETIRO,COMUNA 1,CALZADA,20.0,0,-34.5972,-58.3857
193,193,ARENALES Y AGUERO,2882 Arenales & Aguero,RECOLETA,COMUNA 2,CALZADA,20.0,1,-34.5909,-58.4061
194,194,PERON Y ACUÑA DE FIGUEROA,"3997 Peron, Juan Domingo, Tte. General",ALMAGRO,COMUNA 5,CALZADA,16.0,1,-34.6060,-58.4227
211,195,PLAZA GARAY,"Garay, Juan De Av. &Saenz Peña, Luis, Pres.",CONSTITUCION,COMUNA 1,PLAZA ABIERTA,20.0,0,-34.6271,-58.3872
196,196,HOSPITAL ARGERICH,750 Pi Y Margall & Necochea,BOCA,COMUNA 4,VEREDA,20.0,1,-34.6278,-58.3661
197,197,PLAZA CIUDAD DE UDINE,Mercedes 1480,FLORESTA,COMUNA 10,CALZADA,20.0,1,-34.6210,-58.4930
507,197,QUINTINO BOCAYUVA,"Bocayuva, Quintino & Don Bosco",ALMAGRO,COMUNA 5,CALZADA,20.0,3,-34.6136,-58.4255
217,198,HOSPITAL SARDA,"Castillo, Catulo & Dean Funes",PARQUE PATRICIOS,COMUNA 4,CALZADA,16.0,0,-34.6344,-58.4043
199,199,ESTADOS UNIDOS Y BOEDO,3568 Estados Unidos & Boedo Av.,BOEDO,COMUNA 5,CALZADA,20.0,1,-34.6224,-58.4158
200,200,AUSTRIA Y FRENCH,2080 Austria & French,RECOLETA,COMUNA 3,CALZADA,20.0,1,-34.5883,-58.4043
508,201,PEPIRI,"Alcorta, Amancio Av. y Pepiri",NUEVA POMPEYA,COMUNA 4,VEREDA,8.0,3,-34.6520,-58.4073
429,201,PLAZA EJERCITO DE LOS ANDES,40 Albariño,VILLA LURO,COMUNA 10,PLAZA,8.0,1,-34.6391,-58.5101
332,202,NOGOYA Y ARGERICH,3018 Argerich,VILLA DEL PARQUE,COMUNA 11,CALZADA,16.0,0,-34.6020,-58.4910
333,203,BEIRO,3572 Av. Beiro,DEVOTO,COMUNA 11,VEREDA,20.0,1,-34.6007,-58.5034
382,204,BIARRITZ,2403 Biarritz,VILLA DEL PARQUE,COMUNA 11,CALZADA,16.0,1,-34.6055,-58.4774
316,205,SAN MARTIN,1471 Cucha Cucha,VILLA CRESPO,COMUNA 15,CALZADA,16.0,1,-34.6057,-58.4532
335,206,GALICIA,2502 Galicia,VILLA GENERAL MITRE,COMUNA 11,CALZADA,20.0,1,-34.6158,-58.4708
336,207,PLAZA ARENALES,Nueva York & Chivilcoy,DEVOTO,COMUNA 11,VEREDA,28.0,1,-34.6001,-58.5117
337,208,SEGUI,2419 Segui,PATERNAL,COMUNA 15,CALZADA,16.0,0,-34.5985,-58.4613
256,209,PAYSANDU,1182 Paysandu,CABALLITO,COMUNA 6,CALZADA,20.0,0,-34.6104,-58.4543
338,210,TERRERO,3211 Terrero,VILLA DEL PARQUE,COMUNA 11,CALZADA,16.0,0,-34.6029,-58.4794
339,211,ARANGUREN Y SEGUI,"1608 Aranguren, Juan F., Dr.",CABALLITO,COMUNA 6,CALZADA,16.0,0,-34.6194,-58.4546
314,212,SOR JUANA,1630 Galicia,CABALLITO,COMUNA 6,CALZADA,16.0,0,-34.6104,-58.4603
311,213,HOSPITAL ALVEAR,2626 Av. Warnes,PATERNAL,COMUNA 15,VEREDA,20.0,1,-34.5974,-58.4753
340,214,FLORES,2620 Bogota,FLORES,COMUNA 7,CALZADA,12.0,0,-34.6263,-58.4674
378,215,HOSPITAL ALVAREZ,683 Plurinacional de Bolivia,FLORES,COMUNA 7,CALZADA,20.0,1,-34.6231,-58.4684
341,216,MAGARIÑOS CERVANTES Y ARGERICH,"3011 Magariños Cervantes, A.",VILLA SANTA RITA,COMUNA 11,CALZADA,16.0,0,-34.6142,-58.4813
238,217,CACHIMAYO,1489 Cachimayo,PARQUE CHACABUCO,COMUNA 7,CALZADA,24.0,0,-34.6366,-58.4368
342,218,CAMPANA,1523 Campana,VILLA SANTA RITA,COMUNA 11,CALZADA,20.0,1,-34.6168,-58.4842
458,219,PARQUE CHACABUCO II,Avenida Asamblea y Miro,PARQUE CHACABUCO,COMUNA 7,VEREDA,20.0,1,-34.6363,-58.4439
317,220,GIRIBONE,1101 Giribone,CHACARITA,COMUNA 15,CALZADA,20.0,0,-34.5798,-58.4577
299,221,CULPINA,121 Culpina,FLORES,COMUNA 7,CALZADA,20.0,1,-34.6316,-58.4663
280,222,SIMON BOLIVAR,"1701 Fernandez Moreno, Baldomero",PARQUE CHACABUCO,COMUNA 7,CALZADA,24.0,1,-34.6334,-58.4493
273,223,GAINZA,"494 Gainza, Martin De, Gral.",CABALLITO,COMUNA 6,CALZADA,16.0,1,-34.6168,-58.4467
290,224,FERROCARRIL OESTE,"280 Garcia Lorca, Federico",CABALLITO,COMUNA 6,CALZADA,20.0,0,-34.6192,-58.4453
428,225,HOSPITAL TORNU,1052 Avalos,PARQUE CHAS,COMUNA 15,CALZADA,20.0,1,-34.5876,-58.4740
345,226,PARQUE LA PATERNAL,"Zabala, Joaquin, Dr. y Chorroarin Av.",PATERNAL,COMUNA 15,PLAZA ABIERTA,20.0,0,-34.5951,-58.4771
435,227,CLUB CIUDAD DE BUENOS AIRES,Miguel Sanchez y Av. Libertador,NUÑEZ,COMUNA 13,VEREDA,16.0,1,-34.5447,-58.4597
283,228,BALDOMERO,"2289 Fernandez Moreno, Baldomero",FLORES,COMUNA 7,CALZADA,20.0,0,-34.6355,-58.4562
284,229,RIGLOS,1037 Riglos,PARQUE CHACABUCO,COMUNA 7,CALZADA,20.0,1,-34.6310,-58.4352
347,230,PARQUE LAS HERAS II,3120 Pacheco de Melo,PALERMO,COMUNA 14,VEREDA,20.0,0,-34.5837,-58.4064
348,231,MAGARIÑOS CERVANTES,2465 Magariños Cervantes,VILLA GENERAL MITRE,COMUNA 11,VEREDA,12.0,1,-34.6104,-58.4745
349,232,SUCRE Y MARTINEZ,3517 Sucre,BELGRANO,COMUNA 13,CALZADA,20.0,1,-34.5705,-58.4662
278,233,MONROE,2519 Superi,COGHLAN,COMUNA 12,CALZADA,16.0,1,-34.5641,-58.4698
350,234,VALDENEGRO,2831 Valdenegro,VILLA URQUIZA,COMUNA 12,CALZADA,20.0,0,-34.5685,-58.4846
351,235,COLEGIALES,2825 Zabala,COLEGIALES,COMUNA 13,CALZADA,16.0,0,-34.5719,-58.4522
352,236,GUEMES,4718 Guemes,PALERMO,COMUNA 14,CALZADA,28.0,0,-34.5808,-58.4248
353,237,MADERO OFFICE,"367 Sanchez De Thompson, Mariquita",PUERTO MADERO,COMUNA 1,CALZADA,28.0,1,-34.5991,-58.3645
303,238,RIVERA,"2583 Rivera, Pedro I., Dr.",BELGRANO,COMUNA 13,CALZADA,20.0,0,-34.5578,-58.4629
240,239,VIDAL,2799 Vidal,BELGRANO,COMUNA 13,CALZADA,24.0,0,-34.5582,-58.4654
323,240,ECHEVERRIA,1981 Vidal,BELGRANO,COMUNA 13,CALZADA,24.0,1,-34.5653,-58.4594
354,241,SANATORIO MENDEZ,512 Hidalgo,CABALLITO,COMUNA 6,CALZADA,20.0,0,-34.6134,-58.4402
355,242,PLAZOLETA RAFAEL DEL RIEGO,1327 O` Higgins,PALERMO,COMUNA 14,PLAZOLETA,16.0,1,-34.5674,-58.4464
229,243,PLAZOLETA CELEDONIO FLORES,6599 Cordoba,CHACARITA,COMUNA 15,PLAZOLETA,12.0,1,-34.5817,-58.4516
291,244,UADE,750 Lima,MONSERRAT,COMUNA 1,VEREDA,16.0,1,-34.6171,-58.3815
356,245,ARRIBEÑOS,3229 Arribeños,NUÑEZ,COMUNA 13,CALZADA,16.0,0,-34.5480,-58.4584
321,246,EDUARDO OLIVERA,"1631 Campos, Luis M. Av.",BELGRANO,COMUNA 13,CALZADA,16.0,0,-34.5618,-58.4447
434,247,PLAZA LUCIO DEMARE,3750 O`Higgins,NUÑEZ,COMUNA 13,PLAZA ABIERTA,16.0,1,-34.5457,-58.4651
245,248,HUSARES,2201 Husares,BELGRANO,COMUNA 13,CALZADA,16.0,1,-34.5524,-58.4430
358,249,BALBIN,2519 Conesa,BELGRANO,COMUNA 13,CALZADA,12.0,1,-34.5614,-58.4657
359,250,FLENI,2292 Montañeses,BELGRANO,COMUNA 13,CALZADA,20.0,1,-34.5556,-58.4505
308,251,SOLAR DE LA ABADIA,1819 Maure,PALERMO,COMUNA 14,CALZADA,20.0,1,-34.5675,-58.4370
232,252,TAMBORINI,"3821 Tamborini, Jose Pascual",COGHLAN,COMUNA 12,CALZADA,20.0,1,-34.5601,-58.4791
436,253,PLAZA COLEGIALES,3061 Matienzo,COLEGIALES,COMUNA 13,VEREDA,12.0,1,-34.5784,-58.4453
236,254,PLAZA RAFAEL HERNANDEZ,2004 Vuelta De Obligado,BELGRANO,COMUNA 13,PLAZA ABIERTA,16.0,1,-34.5625,-58.4552
289,255,BARRANCAS DE BELGRANO,"Sucre, Antonio Jose De, Mcal. & Vertiz Virrey Av.",BELGRANO,COMUNA 13,PLAZA ABIERTA,24.0,1,-34.5599,-58.4482
275,256,PLAZA NORUEGA,Amenabar & Mendoza,BELGRANO,COMUNA 13,PLAZA ABIERTA,20.0,1,-34.5622,-58.4594
416,257,PLAZA FRANCISCO RAMIREZ,"2700 Pedraza, Manuela",NUÑEZ,COMUNA 13,CALZADA,28.0,1,-34.5531,-58.4689
361,258,PLAZA J.J. PASO,1399 Moldes,COLEGIALES,COMUNA 13,CALZADA,20.0,1,-34.5691,-58.4538
230,259,PLAZA CASTELLI,3249 Echeverria,BELGRANO,COMUNA 13,PLAZA CERRADA,16.0,1,-34.5679,-58.4642
269,260,SAN MIGUEL DE GARICOITS,"Delgado & Loreto, Virrey",COLEGIALES,COMUNA 13,PLAZA ABIERTA,18.0,1,-34.5772,-58.4576
187,261,QUINTEROS LIDORO,"1483 Quinteros, Lidoro J. Av.",BELGRANO,COMUNA 13,PLAZOLETA,16.0,1,-34.5523,-58.4509
362,262,HOLMBERG,2725 Holmberg,VILLA URQUIZA,COMUNA 12,CALZADA,16.0,1,-34.5667,-58.4791
383,263,PLAZA ECHEVERRIA,Nahuel Huapi & Triunvirato Av.,VILLA URQUIZA,COMUNA 12,PLAZA CERRADA,16.0,1,-34.5717,-58.4897
257,264,PLAZA MARCOS SASTRE,Miller & Monroe,VILLA URQUIZA,COMUNA 12,PLAZA ABIERTA,24.0,1,-34.5711,-58.4809
373,265,PLAZA EXODO JUJEÑO,2812 Liverpool,PARQUE CHAS,COMUNA 15,CALZADA,16.0,1,-34.5826,-58.4810
244,266,PLAZA ALFREDO NOBEL,3310 Hamburgo,PARQUE CHAS,COMUNA 15,PLAZA ABIERTA,20.0,0,-34.5874,-58.4843
384,267,PLAZA 25 DE AGOSTO,1436 Giribone EX 14 De Julio 1194,VILLA ORTUZAR,COMUNA 15,PLAZOLETA,15.0,1,-34.5797,-58.4618
385,268,PLAZA ARISTOBULO DEL VALLE,"Campana & Sastre, Marcos",VILLA DEL PARQUE,COMUNA 11,CALZADA,16.0,1,-34.6064,-58.4932
371,269,PLAZA DE LA MISERICORDIA,493 Lautaro,FLORES,COMUNA 7,CALZADA,11.0,1,-34.6328,-58.4551
263,270,PLAZA DEL ANGEL GRIS,Calcena & Avellaneda Av.,FLORES,COMUNA 7,PLAZA ABIERTA,12.0,1,-34.6218,-58.4577
298,271,PLAZOLETA 11 DE NOVIEMBRE,401 Varela,FLORES,COMUNA 7,CALZADA,16.0,0,-34.6344,-58.4635
261,272,PLAZA BRUNO GIORDANO,"Bruno, Giordano & Neuquen",CABALLITO,COMUNA 6,PLAZA ABIERTA,16.0,1,-34.6159,-58.4407
433,273,PLAZOLETA COLOMBIA,1619 Brandsen,BARRACAS,COMUNA 4,CALZADA,20.0,1,-34.6377,-58.3737
381,274,PLAZA NUESTRA SEÑORA DE LA ASUNCION,1300 Gavilan,VILLA GENERAL MITRE,COMUNA 11,CALZADA,16.0,0,-34.6150,-58.4666
167,275,PLAZA 24 DE SEPTIEMBRE,1355 San Martin Av.,CABALLITO,COMUNA 6,PLAZA ABIERTA,16.0,1,-34.6071,-58.4485
254,276,PRIMERA JUNTA,Rivadavia Av. & Barco Centenera Del,CABALLITO,COMUNA 6,PLAZOLETA,16.0,1,-34.6204,-58.4412
386,277,COGHLAN,2647 Estomba,COGHLAN,COMUNA 12,VEREDA,8.0,1,-34.5658,-58.4755
387,278,DONATO ALVAREZ,"1540 Garcia, Juan Agustin",PATERNAL,COMUNA 15,CALZADA,16.0,1,-34.6021,-58.4655
388,279,ANDONAEGUI,1902 Andonaegui,VILLA URQUIZA,COMUNA 12,CALZADA,20.0,0,-34.5810,-58.4851
324,280,JURAMENTO,5209 Juramento,VILLA URQUIZA,COMUNA 12,CALZADA,16.0,1,-34.5790,-58.4841
235,281,VILLA URQUIZA,Triunvirato Av. & Roosevelt Franklin D. Av.,VILLA URQUIZA,COMUNA 12,VEREDA,24.0,1,-34.5736,-58.4873
247,282,TRONADOR,Triunvirato Av. & Tronador,VILLA ORTUZAR,COMUNA 15,PLAZOLETA,18.0,1,-34.5841,-58.4663
264,283,CNEL. JUAN CRUZ CZETZ,"Balbin, Ricardo, Dr. Av. & Larralde, Crisologo Av.",SAAVEDRA,COMUNA 12,PLAZOLETA,16.0,0,-34.5561,-58.4810
286,284,BONIFACIO Y CARABOBO,"1913 Bonifacio, Jose",FLORES,COMUNA 7,CALZADA,16.0,0,-34.6305,-58.4552
318,285,ESPINOSA,1785 Espinosa,VILLA CRESPO,COMUNA 15,CALZADA,20.0,1,-34.6040,-58.4572
389,286,OEA,741 Del Barco Centenera,CABALLITO,COMUNA 6,VEREDA,20.0,0,-34.6281,-58.4401
367,287,BELAUSTEGUI,"2890 Belaustegui, Luis, Dr.",VILLA SANTA RITA,COMUNA 11,CALZADA,16.0,1,-34.6164,-58.4772
390,288,11 DE SEPTIEMBRE,3314 11 De Septiembre De 1888,NUÑEZ,COMUNA 13,CALZADA,20.0,0,-34.5478,-58.4599
322,289,MONTAÑESES,2786 Montañeses,BELGRANO,COMUNA 13,CALZADA,19.0,1,-34.5514,-58.4541
259,290,CLUB EXCURSIONISTAS,1818 Miñones,BELGRANO,COMUNA 13,CALZADA,16.0,1,-34.5581,-58.4433
313,291,UNIVERSIDAD DE BELGRANO,1920 Zabala,PALERMO,COMUNA 14,CALZADA,20.0,0,-34.5649,-58.4448
277,292,PLAZA BOLIVIA,Olleros Av. & Del Libertador Av.,PALERMO,COMUNA 14,VEREDA,12.0,1,-34.5635,-58.4367
296,293,PEDERNERA,318 Pedernera,FLORES,COMUNA 7,CALZADA,16.0,0,-34.6330,-58.4625
293,294,BONIFACIO,"381 Bonifacio, Jose",CABALLITO,COMUNA 6,CALZADA,16.0,0,-34.6264,-58.4323
391,295,LARRALDE,3607 Vidal,SAAVEDRA,COMUNA 12,CALZADA,20.0,0,-34.5508,-58.4720
276,296,FREIRE,"2899 Freire, Ramon, Cap. Gral.",COGHLAN,COMUNA 12,CALZADA,16.0,0,-34.5595,-58.4700
392,297,TRONADOR Y GARCIA DEL RIO,Tronador y Garcia del Rio,SAAVEDRA,COMUNA 12,VEREDA,16.0,1,-34.5546,-58.4854
509,298,IRALA,655 Irala,BOCA,COMUNA 4,CALZADA,19.0,3,-34.6349,-58.3672
309,298,PLAZA DR. JUAN B. TERAN,5539 Nogoya,VILLA REAL,COMUNA 10,VEREDA,16.0,1,-34.6216,-58.5198
287,299,HIDALGO,796 Hidalgo,CABALLITO,COMUNA 6,CALZADA,20.0,0,-34.6104,-58.4411
393,300,JOSE ARTIGAS,Avenida del Campo y 14 de Julio,PATERNAL,COMUNA 15,CALZADA,6.0,1,-34.5903,-58.4670
375,301,ARREGUI Y TERRADA,2792 Arregui,VILLA DEL PARQUE,COMUNA 11,CALZADA,16.0,1,-34.6049,-58.4848
237,302,ESTACION VILLA LURO,90 Virgilio,VILLA LURO,COMUNA 10,VEREDA,16.0,1,-34.6370,-58.5014
502,302,PLAZA JOSE MARTI,"1801 Acosta, Mariano",FLORES,COMUNA 7,PLAZA ABIERTA,,3,-34.6496,-58.4627
395,303,HUAURA,1405 Huaura (Esq Fitz Roy),VILLA CRESPO,COMUNA 15,CALZADA,16.0,1,-34.5973,-58.4531
369,304,NAVARRO,2625 Navarro,AGRONOMIA,COMUNA 15,CALZADA,16.0,1,-34.5923,-58.4920
370,305,PLAZA MARTIN RODRIGUEZ,3016 Pareja,VILLA PUEYRREDON,COMUNA 12,CALZADA,20.0,1,-34.5910,-58.5003
396,306,TRES ARROYOS Y OLAYA,421 Tres Arroyos,VILLA CRESPO,COMUNA 15,CALZADA,20.0,0,-34.6024,-58.4488
249,307,LEONARDO PEREYRA,Luzuriaga 1400,BARRACAS,COMUNA 4,PLAZA CERRADA,16.0,0,-34.6506,-58.3873
397,308,ARTIGAS Y MELINCUE,Artigas & Melincue,VILLA DEL PARQUE,COMUNA 11,CALZADA,12.0,0,-34.5980,-58.4858
518,309,HOMERO MANZI,2292 Barco Centenera Del,NUEVA POMPEYA,COMUNA 4,CALZADA,20.0,3,-34.6449,-58.4316
301,309,UTN II,Saraza y Mozart,VILLA LUGANO,COMUNA 8,CALZADA,20.0,1,-34.6605,-58.4676
398,310,GREGORIA PEREZ,3272 Gregoria Perez,COLEGIALES,COMUNA 13,CALZADA,16.0,0,-34.5764,-58.4546
312,311,CONCORDIA,3396 Bogota,FLORESTA,COMUNA 10,CALZADA,20.0,0,-34.6290,-58.4770
399,312,PARQUE CHACABUCO I,"Peron, Eva & Achaval",PARQUE CHACABUCO,COMUNA 7,PLAZA ABIERTA,20.0,0,-34.6341,-58.4465
400,313,DE LOS INCAS,Avenida de los Incas 4138,VILLA ORTUZAR,COMUNA 15,CALZADA,16.0,1,-34.5816,-58.4747
401,314,RAMON FALCON,"3792 Falcon, Ramon L.,Cnel.",FLORESTA,COMUNA 10,CALZADA,17.0,0,-34.6347,-58.4795
267,315,BEIRO Y SAN MARTIN,3209 Av. Francisco Beiro,DEVOTO,COMUNA 11,VEREDA,16.0,1,-34.5976,-58.4985
403,316,BUENOS AIRES,Luna & Suarez EX Lafayette 678,BARRACAS,COMUNA 4,CALZADA,20.0,1,-34.6459,-58.3968
404,317,CERO MAS INFINITO,Ciudad Universitaria - Pabellón Infinito,BELGRANO,COMUNA 13,VEREDA,19.0,0,-34.5442,-58.4423
405,318,PLAZA Y CARBAJAL,1602 Plaza,VILLA ORTUZAR,COMUNA 15,CALZADA,20.0,0,-34.5768,-58.4690
380,319,CERVANTES Y TRELLES,"1683 Magariños Cervantes, A.",VILLA GENERAL MITRE,COMUNA 11,CALZADA,20.0,0,-34.6060,-58.4647
297,320,QUIRNO,781 Quirno,FLORES,COMUNA 7,CALZADA,16.0,0,-34.6409,-58.4663
300,321,PERITO MORENO,Avenida Perito Moreno 1800,FLORES,COMUNA 7,PLAZA ABIERTA,19.0,0,-34.6487,-58.4320
372,322,MARTI Y DIRECTORIO,"404 Marti, Jose",FLORES,COMUNA 7,CALZADA,12.0,1,-34.6365,-58.4701
148,323,PARQUE AVELLANEDA II,Av. Directorio y Av. Olivera,PARQUE AVELLANEDA,COMUNA 9,VEREDA,28.0,0,-34.6453,-58.4846
376,324,LAS VICTORIAS,"4083 Vallese, Felipe",FLORESTA,COMUNA 10,CALZADA,20.0,1,-34.6268,-58.4873
279,325,CASTELLI Y PERON,"Castelli & Peron, Juan Domingo, Tte. General",BALVANERA,COMUNA 3,VEREDA,20.0,0,-34.6076,-58.4048
406,326,EMMA DE LA BARRA,"301 De la Barra, Emma",PUERTO MADERO,COMUNA 1,CALZADA,16.0,0,-34.6010,-58.3646
377,327,ACUÑA DE FIGUEROA Y POTOSI,296 Acuna de Figueroa,ALMAGRO,COMUNA 5,CALZADA,16.0,3,-34.6074,-58.4230
459,327,PLAZA RICCHERI,Quevedo 3473,VILLA DEVOTO,COMUNA 11,VEREDA,16.0,1,-34.6107,-58.5191
417,328,CENTRO CULTURAL SAN MARTIN,1501 Sarmiento,SAN NICOLAS,COMUNA 1,CALZADA,20.0,0,-34.6053,-58.3881
319,329,PASO Y LAVALLE,486 Paso,BALVANERA,COMUNA 3,CALZADA,20.0,0,-34.6036,-58.4037
407,330,PARQUE AVELLANEDA,Remedios 3895,PARQUE AVELLANEDA,COMUNA 9,PLAZA ABIERTA,28.0,1,-34.6423,-58.4783
252,331,CALIFORNIA,California y Hornos,BARRACAS,COMUNA 4,VEREDA,16.0,1,-34.6470,-58.3743
513,331,PLAZA HERRERA,Herrera & Quinquela Martin,BARRACAS,COMUNA 4,VEREDA,16.0,3,-34.6437,-58.3762
282,332,PLAZOLETA PORTUGAL,"Aviles, Virrey & Cramer",COLEGIALES,COMUNA 13,PLAZA CERRADA,20.0,0,-34.5702,-58.4562
288,333,MIRO,1684 Miro,PARQUE CHACABUCO,COMUNA 7,CALZADA,20.0,3,-34.6403,-58.4429
43,334,CENTRO DE EXPOSICIONES,2133 Figueroa Alcorta,RECOLETA,COMUNA 2,PLAZOLETA,28.0,1,-34.5841,-58.3907
210,335,GENERAL URQUIZA,"Figueroa Alcorta, Pres. Av. & Sarmiento Av.",PALERMO,COMUNA 14,PLAZA ABIERTA,20.0,1,-34.5713,-58.4119
258,336,LA PAMPA,2520 La Pampa & Ciudad De La Paz,BELGRANO,COMUNA 13,CALZADA,16.0,1,-34.5656,-58.4555
408,337,UTN,2400 Mozart,VILLA LUGANO,COMUNA 8,CALZADA,14.0,0,-34.6599,-58.4685
246,338,SUCRE Y DRAGONES,"877 Sucre, Antonio Jose De, Mcal.",BELGRANO,COMUNA 13,CALZADA,16.0,0,-34.5544,-58.4390
409,339,AMANCIO ALCORTA,"Alcorta, Amancio Av. y Saenz Av.",NUEVA POMPEYA,COMUNA 4,PLAZA ABIERTA,24.0,0,-34.6565,-58.4161
302,340,PLAZA NUEVA POMPEYA,3800 Traful,NUEVA POMPEYA,COMUNA 4,PLAZA ABIERTA,16.0,1,-34.6517,-58.4146
307,341,COMUNA 4,Avenida Perito Moreno 2881,NUEVA POMPEYA,COMUNA 4,VEREDA,16.0,1,-34.6499,-58.4247
519,341,TILCARA,3318 Tilcara,NUEVA POMPEYA,COMUNA 4,CALZADA,16.0,3,-34.6544,-58.4199
325,342,SAENZ,884 Saenz,NUEVA POMPEYA,COMUNA 4,VEREDA,16.0,0,-34.6501,-58.4161
326,343,POMAR,"4152 Pomar, Gregorio Tte. Cnel.",NUEVA POMPEYA,COMUNA 4,CALZADA,20.0,0,-34.6412,-58.4200
234,344,UNIVERSIDAD DI TELLA,"1001 Saenz Valiente, Juan Pablo",BELGRANO,COMUNA 13,CALZADA,20.0,1,-34.5481,-58.4476
418,345,PLAZA MAFALDA,Conde & Cocepcion Arenal,COLEGIALES,COMUNA 13,VEREDA,20.0,1,-34.5809,-58.4446
248,346,PLAZA ZAPIOLA,2001 Donado,VILLA URQUIZA,COMUNA 12,PLAZA ABIERTA,20.0,1,-34.5737,-58.4743
272,347,PLAZA MALAVER,328 Heredia,VILLA ORTUZAR,COMUNA 15,PLAZA ABIERTA,20.0,0,-34.5881,-58.4667
241,348,VILLA DEL PARQUE,"Gutierrez, Ricardo & Lozano, Pedro",VILLA DEL PARQUE,COMUNA 11,PLAZOLETA,12.0,1,-34.6007,-58.4940
262,349,PLAZA SAENZ PEÑA,"Lamas, Andres & Escalada San Martin, Remedos",VILLA GENERAL MITRE,COMUNA 11,PLAZA ABIERTA,16.0,1,-34.6096,-58.4674
281,350,PLAZA IRLANDA,2200 Gaona Av.,CABALLITO,COMUNA 6,PLAZA ABIERTA,24.0,1,-34.6131,-58.4572
423,351,PLAZA DE LOS PERIODISTAS,2900 Neuquen,FLORES,COMUNA 7,CALZADA,6.0,0,-34.6212,-58.4738
449,352,SAN JOSE DE FLORES,Rivadavia & Fray Cayetano,FLORES,COMUNA 7,PLAZA ABIERTA,24.0,1,-34.6289,-58.4627
267,353,PLAZA VÉLEZ SARSFIELD,Chivilcoy & Avellaneda Av.,FLORESTA,COMUNA 10,PLAZA ABIERTA,12.0,0,-34.6295,-58.4837
363,354,JOSE MARTI,Av. Eva Perón 3321 Reubicada EX 3101 Primera Junta,FLORES,COMUNA 7,VEREDA,16.0,1,-34.6438,-58.4630
514,354,PLAZA TUPAC AMARU,3101 Primera Junta,FLORES,COMUNA 7,CALZADA,16.0,3,-34.6420,-58.4620
292,355,PLAZA RICARDO LLERAS,"Samperio, Manuel J. & Herrera",BARRACAS,COMUNA 4,PLAZOLETA,19.0,0,-34.6348,-58.3787
310,356,ESTACION LUGANO,Murguiondo 4181,VILLA LUGANO,COMUNA 8,PLAZOLETA,12.0,1,-34.6771,-58.4757
510,356,PLAZA SERGIO KARAKACHOFF,Brandsen & Herrera,BARRACAS,COMUNA 4,PLAZOLETA,16.0,3,-34.6381,-58.3777
195,357,PLAZA MARTIN FIERRO,La Rioja & Cochabamba,SAN CRISTOBAL,COMUNA 3,PLAZA CERRADA,20.0,0,-34.6259,-58.4069
516,358,PLAZA ALMIRANTE BROWN,Irala & California,BOCA,COMUNA 4,CALZADA,23.0,3,-34.6453,-58.3653
394,358,REGIMIENTO PATRICIOS,1702 Av. Regimiento de Patricios,BOCA,COMUNA 4,VEREDA,23.0,0,-34.6456,-58.3685
419,359,PLAZA BALCARCE,2324 Jaramillo,NUÑEZ,COMUNA 13,CALZADA,28.0,1,-34.5475,-58.4678
366,360,PLAZA RAMON FALCON,"3992 Falcon, Ramon L.,Cnel.",VELEZ SARFIELD,COMUNA 10,PLAZA,12.0,1,-34.6354,-58.4827
265,361,PLAZA DON SEGUNDO SOMBRA,2347 Santander,FLORES,COMUNA 7,VEREDA,16.0,1,-34.6419,-58.4507
431,362,PARQUE DE LA MEMORIA,7201 Av. Costanera,BELGRANO,COMUNA 13,VEREDA,20.0,1,-34.5429,-58.4351
294,363,UDAONDO,1185 Av. Udaondo,NUÑEZ,COMUNA 13,VEREDA,20.0,0,-34.5461,-58.4520
320,364,CARRANZA Y GORRITI,"1501 Carranza, Angel Justiniano",PALERMO,COMUNA 14,CALZADA,20.0,3,-34.5841,-58.4401
408,364,CERRETTI Y MANUELA PEDRAZA,Ceretti 3407,VILLA URQUIZA,COMUNA 12,CALZADA,16.0,1,-34.5691,-58.5003
271,365,VENANCIO FLORES,"Flores, Venancio, Gral.& Cuenca",FLORESTA,COMUNA 10,VEREDA,20.0,1,-34.6294,-58.4720
516,366,PLAZA DIAZ VELEZ,"Cruz, Osvaldo Av. & San Antonio",BARRACAS,COMUNA 4,PLAZA,16.0,3,-34.6526,-58.3769
327,366,VILLA OLIMPICA,4347 Escalada,VILLA LUGANO,COMUNA 8,PLAZOLETA,16.0,1,-34.6774,-58.4542
374,367,EVA PERON,Primera junta 3896 & Laguna,PARQUE AVELLANEDA,COMUNA 9,VEREDA,16.0,1,-34.6473,-58.4700
517,367,MARIANO CASTEX,"2873 Alvarez, Crisostomo",FLORES,COMUNA 7,VEREDA,16.0,3,-34.6454,-58.4574
503,367,MARTINEZ CASTRO,"1363 Mariano Acosta NO SE ABRE MAS, EL ID SE USA PARA EVA PERON",PARQUE AVELLANEDA,COMUNA 9,VEREDA,16.0,3,-34.6437,-58.4703
411,368,ENSENADA,413 Ensenada,FLORESTA,COMUNA 10,CALZADA,12.0,0,-34.6378,-58.4768
274,369,CIUDAD DE LA PAZ,2816 Ciudad de la Paz,BELGRANO,COMUNA 13,CALZADA,24.0,0,-34.5566,-58.4629
270,370,BEAUCHEF,1995 Beauchef,PARQUE CHACABUCO,COMUNA 7,CALZADA,20.0,1,-34.6401,-58.4304
260,371,PASEO DE LAS AMERICAS,Av.La Pampa y Av. Pres Figueroa Alcorta,BELGRANO,COMUNA 13,PLAZA ABIERTA,12.0,1,-34.5530,-58.4352
412,372,VILLA SOLDATI,Avenida Lafuente 3360,VILLA SOLDATI,COMUNA 8,PLAZOLETA,16.0,0,-34.6641,-58.4370
188,373,JORGELINA DE SIMONE,1755 Cochabamba,CONSTITUCION,COMUNA 1,CALZADA,16.0,1,-34.6240,-58.3906
255,374,PUAN,1290 Yerbal,CABALLITO,COMUNA 6,CALZADA,16.0,1,-34.6221,-58.4484
420,375,CIUDAD UNIVERSITARIA I,Ciudad Universitaria - Pabellón 1(CABA),BELGRANO,COMUNA 13,VEREDA,20.0,1,-34.5446,-58.4396
421,376,CIUDAD UNIVERSITARIA II,Ciudad Universitaria - Pabellón 2 (CABA),BELGRANO,COMUNA 13,VEREDA,12.0,0,-34.5422,-58.4427
422,377,CIUDAD UNIVERSITARIA III,Ciudad Universitaria - Pabellón 3 (CABA),BELGRANO,COMUNA 13,VEREDA,28.0,1,-34.5414,-58.4442
368,378,AGRONOMIA,4351 San Martin,AGRONOMIA,COMUNA 15,VEREDA,12.0,1,-34.5983,-58.4819
515,379,BERG,"3402 Berg, Carlos",VILLA SOLDATI,COMUNA 8,PLAZA,12.0,3,-34.6598,-58.4290
266,379,CORPORACION BUENOS AIRES SUR,Rabanal 3220,VILLA SOLDATI,COMUNA 8,VEREDA,16.0,3,-34.6655,-58.4385
422,379,PARQUE SARMIENTO II,Alfonsina Storni 3771,SAAVEDRA,COMUNA 12,CALZADA,16.0,1,-34.5645,-58.5029
306,380,PAYSANDU Y GALICIA,1220 Galicia,CABALLITO,COMUNA 6,CALZADA,20.0,0,-34.6085,-58.4560
364,381,MATIENZO Y ARCE,"1798 Matienzo, Benjamin, Teniente",PALERMO,COMUNA 14,CALZADA,24.0,0,-34.5688,-58.4343
511,382,CMD,1016 Algarrobo,BARRACAS,COMUNA 4,CALZADA,16.0,3,-34.6545,-58.3794
413,382,MERCADO DE HACIENDA MATADEROS,2307 Lisandro de la Torre,MATADEROS,COMUNA 9,PLAZOLETA,16.0,1,-34.6615,-58.5016
253,383,BOEDO Y VENEZUELA,389 Boedo Av. & Republica Bolivariana De Venezuela,ALMAGRO,COMUNA 5,VEREDA,20.0,1,-34.6171,-58.4169
231,384,PLAZA BENITO NAZAR,"Virasoro, Valentin & Figueroa, D Apolinario, Coronel",VILLA CRESPO,COMUNA 15,PLAZA ABIERTA,16.0,1,-34.6048,-58.4463
414,385,FRANKLIN,440 Franklin,CABALLITO,COMUNA 6,CALZADA,20.0,0,-34.6078,-58.4382
415,386,GAVILAN Y VALLESE,786 Gavilan,FLORES,COMUNA 7,CALZADA,20.0,0,-34.6205,-58.4637
424,387,LUNA,201 Luna,PARQUE PATRICIOS,COMUNA 4,CALZADA,16.0,1,-34.63847,-58.3997
251,388,PLAZA JOSE C PAZ,"3394 Jose. C Paz EX Pepiri & Paz, Jose C.",PARQUE PATRICIOS,COMUNA 4,PLAZA ABIERTA,20.0,1,-34.64503,-58.40973
233,389,PLAZA REPUBLICA DE MEXICO,693 La Pampa,BELGRANO,COMUNA 13,PLAZA ABIERTA,24.0,0,-34.5541,-58.4362
379,390,DE LOS OMBUES,"De Los Ombues Av. & Bello, Andres",PALERMO,COMUNA 14,CALZADA,20.0,1,-34.56,-58.428
239,391,PLAZA REPUBLICA DE ECUADOR,"Figueroa Alcorta, Pres. Av. & Dorrego Av.",PALERMO,COMUNA 14,VEREDA,20.0,1,-34.56553,-58.41986
295,392,CALASANZ,San Jose De Calasanz & Valle,CABALLITO,COMUNA 6,CALZADA,20.0,0,-34.6247,-58.4377
448,393,BARRIO 31,11 Carlos H. Perette,RETIRO,COMUNA 1,VEREDA,24.0,1,-34.58309,-58.37782
425,394,AV. LA PLATA,"804 Arbeletche, Anibal P.",NUEVA POMPEYA,COMUNA 4,CALZADA,16.0,1,-34.64408,-58.42212
304,395,AGRONOMIA II,De Los Incas Av. & De Los Constituyentes Av.,AGRONOMIA,COMUNA 15,VEREDA,16.0,1,-34.5891,-58.48472
426,396,PLAZA ALBERTI,Arcos & Roosevelt Franklin D.,BELGRANO,COMUNA 13,CALZADA,20.0,1,-34.55571,-58.45789
427,397,PARQUE SANTOJANNI,6373 Acasusso,LINIERS,COMUNA 9,CALZADA,16.0,1,-34.6484,-58.5136
504,397,PLAZA MATHEU,"Hernandarias & Araoz De Lamadrid, Gregorio, Gral.",BOCA,COMUNA 4,PLAZA ABIERTA,24.0,3,-34.6136,-58.4233
305,398,ROJAS,731 Rojas,CABALLITO,COMUNA 6,CALZADA,16.0,0,-34.6125,-58.4449
268,399,GARCIA DEL RIO,Garcia Del Rio & Pinto,SAAVEDRA,COMUNA 12,PLAZA ABIERTA,28.0,1,-34.55024,-58.4771
285,400,RESERVA ECOLOGICA,"Achaval Rodriguez, T., Dr. Av. 1520",PUERTO MADERO,COMUNA 1,VEREDA,19.0,0,-34.6173,-58.3567
468,84,TEATRO PICADERO,Riobamba 403,BALVANERA,COMUNA 3,VEREDA,8.0,1,-34.6042,-58.3937
467,328,SARMIENTO II,Sarmiento 2037,BALVANERA,COMUNA 3,VEREDA,12.0,1,-34.6058,-58.3958
466,333,PARQUE DE LA ESTACION,Dr. Tomas Manuel de Anchorena 170,ALMAGRO,COMUNA 5,VEREDA,16.0,1,-34.608,-58.4118
465,192,HOSPITAL SIRIO,Gabriela Mistral 3325 y Campana,VILLA DEVOTO,COMUNA 11,VEREDA,12.0,1,-34.5904,-58.5071
476,279,PLAZA MONTE CASTRO,Gualeguaychu 1900 y Miranda,MONTE CASTRO,COMUNA 10,VEREDA,12.0,1,-34.6181,-58.4985
473,216,EMILIO LAMARCA,Emilio Lamarca 2066 Y Avenida Alvarez Jonte,VILLA DEL PARQUE,COMUNA 11,VEREDA,12.0,1,-34.6133,-58.4933
474,224,BAIGORRIA,Baigorria 4186 y Mercedes,MONTE CASTRO,COMUNA 10,VEREDA,12.0,1,-34.6106,-58.5029
469,62,PARQUE ONEGA,Avenida General Mosconi 3780 y Joaquin V. Gonzalez,VILLA DEVOTO,COMUNA 11,VEREDA,12.0,1,-34.5932,-58.5138
471,173,EL LIBERTADOR,Avenida San Martin 6220 y Nueva York,VILLA DEVOTO,COMUNA 11,VEREDA,12.0,1,-34.5944,-58.5032
475,238,PLAZA LAS TOSCANERAS,Coronel Ramon Lista 5500 y Moliere,VILLA REAL,COMUNA 10,VEREDA,12.0,1,-34.639,-58.5043
479,347,CARABOBO,Pumahuaca 9 y Avenida Rivadavia,FLORES,COMUNA 7,VEREDA,12.0,1,-34.626,-58.4553
381,274,GAVILAN,Gavilan 1200 y Avenida Gaona,VILLA GENERAL MITRE,COMUNA 11,VEREDA,12.0,1,-34.615,-58.4666
478,15,AMENABAR,Teodoro Garcia 2613 y Amenabar,COLEGIALES,COMUNA 13,VEREDA,12.0,1,-34.5719,-58.4475
472,310,FREIRE II,Capitan General Ramon Freire 100 y Concepcion Arenal,COLEGIALES,COMUNA 13,VEREDA,12.0,1,-34.5799,-58.4443
477,311,SECRETARIA DE INNOVACION,Avenida Caseros 2309 y Pichincha,PARQUE PATRICIOS,COMUNA 4,VEREDA,12.0,1,-34.6346,-58.3951
481,369,PLAZA LARRAZABAL,Avenida Larrazabal 380 y Garcia de Cossio,LINIERS,COMUNA 9,VEREDA,12.0,1,-34.6428,-58.5126
483,175,PLAZA MACKENNA,Cramer 4500 (y Arias),SAAVEDRA,COMUNA 12,VEREDA,12.0,1,-34.5436,-58.4771
486,220,PLAZA FELIX LIMA,Ramallo 2200 (y Cuba),NUÑEZ,COMUNA 13,VEREDA,12.0,1,-34.5418,-58.4704
485,230,PASEO DE LA COSTANERA II,Avenida Costanera Rafael Obligado 5100,PALERMO,COMUNA 14,VEREDA,12.0,1,-34.5519,-58.4266
488,234,AVENIDA TRIUNVIRATO,Avenida Triunvirato 5752,VILLA URQUIZA,COMUNA 12,VEREDA,12.0,1,-34.5656,-58.4952
487,239,AVENIDA CRAMER,Avenida Cramer 2900 (y Avenida Congreso),BELGRANO,COMUNA 13,VEREDA,12.0,1,-34.558,-58.4673
489,288,SECRETARIA DE DEPORTES,Avenida Libertador 7100 (y Tte Gral. Pablo Ricchieri),NUÑEZ,COMUNA 13,VEREDA,12.0,1,-34.5472,-58.4564
484,295,SUPERI,Nuñez 3486 (y Superi),SAAVEDRA,COMUNA 12,VEREDA,12.0,1,-34.5554,-58.4767
482,376,PASEO DE LA COSTANERA,Avenida Costanera Rafael Obligado 6200 (y Int. Cantilo),PALERMO,COMUNA 14,VEREDA,12.0,1,-34.5503,-58.4297
493,208,NICASIO OROÑO,Nicasio Oroño 2598,PATERNAL,COMUNA 15,VEREDA,8.0,1,-34.5964,-58.4594
490,245,COSTANERA NORTE,Avenida Costanera Rafael Obligado 1700 (Punta Carrasco),PALERMO,COMUNA 14,VEREDA,16.0,1,-34.5645,-58.4022
492,325,MEDRANO,Bartolome Mitre 3905,ALMAGRO,COMUNA 5,VEREDA,16.0,1,-34.6094,-58.4215
497,307,CERETTI,2892 Ceretti,VILLA URQUIZA,COMUNA 12,VEREDA,12.0,1,-34.5743,-58.4961
496,52,CAMPANA II,Cochrane 3298 (y Campana),VILLA PUEYRREDON,COMUNA 12,VEREDA,12.0,1,-34.583,-58.5131
494,314,ALLENDE,Allende 2794,VILLA DEVOTO,COMUNA 11,VEREDA,12.0,1,-34.6147,-58.5116
491,266,PLAZA SABATTINI,Colpayo 699,CABALLITO,COMUNA 6,PLAZA ABIERTA,8.0,1,-34.6124,-58.4433
498,55,HABANA,Gral. José Gervasio Artigas 4298 (y Habana),VILLA PUEYRREDON,COMUNA 12,CALZADA,12.0,1,-34.5865,-58.4949
41,41,PARQUE PATRICIOS II,Avenida Caseros 3015,PARQUE PATRICIOS,COMUNA 4,VEREDA,20.0,1,-34.6374,-58.4057
80,80,VALLE,Valle 486,CABALLITO,COMUNA 6,VEREDA,12.0,1,-34.6244,-58.4342
